CALSPHERE 1             
1 00900U 64063C   23014.07861497  .00000818  00000+0  85816-3 0  9997
2 00900  90.1804  44.8559 0028923 108.0293 305.9103 13.74044078899583
CALSPHERE 2             
1 00902U 64063E   23013.84501631  .00000038  00000+0  43419-4 0  9992
2 00902  90.1940  48.0823 0016485 255.5360 280.1410 13.52732672687219
LCS 1                   
1 01361U 65034C   23013.85988937  .00000008  00000+0 -53530-4 0  9993
2 01361  32.1396 265.7300 0010932 264.3315  95.5936  9.89302500 86062
TEMPSAT 1               
1 01512U 65065E   23013.85751563  .00000041  00000+0  63087-4 0  9992
2 01512  89.9214 217.0316 0070605 158.3568 216.9633 13.33465972793415
CALSPHERE 4A            
1 01520U 65065H   23013.75041449  .00000148  00000+0  26705-3 0  9998
2 01520  89.9829 129.9039 0069490  31.9916  64.9836 13.35927124795739
OPS 5712 (P/L 160)      
1 02826U 67053A   23014.67097209  .00008156  00000+0  20376-2 0  9998
2 02826  69.9277 153.1707 0003519  12.4167 347.7053 14.51816840883874
OPS 5712 (P/L 153)      
1 02874U 67053H   23014.08982195  .00000078  00000+0  94684-4 0  9993
2 02874  69.9738 273.9634 0006910 355.1585   4.9453 13.96439497832718
SURCAL 150B             
1 02909U 67053J   23014.18015425  .00015763  00000+0  28728-2 0  9997
2 02909  69.9465 133.1770 0001205 339.4121  20.6972 14.66097848894970
RIGIDSPHERE 2 (LCS 4)   
1 05398U 71067E   23014.09627545  .00001456  00000+0  49863-3 0  9992
2 05398  87.6236 324.8789 0064940  51.5992 309.1012 14.34475876694682
COSMOS 2493 (SKRL-756 1)
1 39490U 13078A   23014.56022048  .00003426  00000+0  35073-3 0  9996
2 39490  82.4176  31.7744 0018501 114.0204 246.2953 14.90127974491456
COSMOS 2494 (SKRL-756 2)
1 39491U 13078B   23014.59545698  .00003818  00000+0  37589-3 0  9990
2 39491  82.4177  25.0521 0023112  90.5600 269.8268 14.91632617491804
